CCSDS_OMM_VERS = 2.0
CREATION_DATE  = 
ORIGINATOR     = 

OBJECT_NAME    = SENTINEL-6B
OBJECT_ID      = 2025-264A
CENTER_NAME    = EARTH
REF_FRAME      = TEME
TIME_SYSTEM    = UTC
MEAN_ELEMENT_THEORY = SGP/SGP4

EPOCH          = 2025-12-12T06:01:21.430272
MEAN_MOTION    = 12.81479583
ECCENTRICITY   = .00078489
INCLINATION    = 66.0385
RA_OF_ASC_NODE = 163.4531
ARG_OF_PERICENTER = 270.1768
MEAN_ANOMALY   = 89.8348

EPHEMERIS_TYPE = 0
CLASSIFICATION_TYPE = U
NORAD_CAT_ID   = 66514
ELEMENT_SET_NO = 999
REV_AT_EPOCH   = 322
BSTAR          = .19742237E-3
MEAN_MOTION_DOT = -.15E-6
MEAN_MOTION_DDOT = 0

CCSDS_OMM_VERS = 2.0
CREATION_DATE  = 
ORIGINATOR     = 

OBJECT_NAME    = STARLINK-35924
OBJECT_ID      = 2025-265A
CENTER_NAME    = EARTH
REF_FRAME      = TEME
TIME_SYSTEM    = UTC
MEAN_ELEMENT_THEORY = SGP/SGP4

EPOCH          = 2025-12-12T06:00:00.999648
MEAN_MOTION    = 15.43116483
ECCENTRICITY   = .00012528
INCLINATION    = 43.0004
RA_OF_ASC_NODE = 56.9436
ARG_OF_PERICENTER = 251.5557
MEAN_ANOMALY   = 4.7897

EPHEMERIS_TYPE = 0
CLASSIFICATION_TYPE = U
NORAD_CAT_ID   = 66516
ELEMENT_SET_NO = 999
REV_AT_EPOCH   = 489
BSTAR          = -.58248166E-1
MEAN_MOTION_DOT = -.2351276E-1
MEAN_MOTION_DDOT = 0

CCSDS_OMM_VERS = 2.0
CREATION_DATE  = 
ORIGINATOR     = 

OBJECT_NAME    = STARLINK-35937
OBJECT_ID      = 2025-265B
CENTER_NAME    = EARTH
REF_FRAME      = TEME
TIME_SYSTEM    = UTC
MEAN_ELEMENT_THEORY = SGP/SGP4

EPOCH          = 2025-12-12T06:00:00.999648
MEAN_MOTION    = 15.50549289
ECCENTRICITY   = .00014002
INCLINATION    = 43.0003
RA_OF_ASC_NODE = 56.8815
ARG_OF_PERICENTER = 268.9208
MEAN_ANOMALY   = 12.8005

EPHEMERIS_TYPE = 0
CLASSIFICATION_TYPE = U
NORAD_CAT_ID   = 66517
ELEMENT_SET_NO = 999
REV_AT_EPOCH   = 491
BSTAR          = .48702885E-3
MEAN_MOTION_DOT = .28303E-3
MEAN_MOTION_DDOT = 0

CCSDS_OMM_VERS = 2.0
CREATION_DATE  = 
ORIGINATOR     = 

OBJECT_NAME    = STARLINK-35962
OBJECT_ID      = 2025-265C
CENTER_NAME    = EARTH
REF_FRAME      = TEME
TIME_SYSTEM    = UTC
MEAN_ELEMENT_THEORY = SGP/SGP4

EPOCH          = 2025-12-12T06:00:00.999648
MEAN_MOTION    = 15.50654890
ECCENTRICITY   = .0002289
INCLINATION    = 42.9999
RA_OF_ASC_NODE = 56.8767
ARG_OF_PERICENTER = 266.9099
MEAN_ANOMALY   = 16.7373

EPHEMERIS_TYPE = 0
CLASSIFICATION_TYPE = U
NORAD_CAT_ID   = 66518
ELEMENT_SET_NO = 999
REV_AT_EPOCH   = 491
BSTAR          = -.14257338E-2
MEAN_MOTION_DOT = -.8333E-3
MEAN_MOTION_DDOT = 0

CCSDS_OMM_VERS = 2.0
CREATION_DATE  = 
ORIGINATOR     = 

OBJECT_NAME    = STARLINK-35931
OBJECT_ID      = 2025-265D
CENTER_NAME    = EARTH
REF_FRAME      = TEME
TIME_SYSTEM    = UTC
MEAN_ELEMENT_THEORY = SGP/SGP4

EPOCH          = 2025-12-12T06:00:00.999648
MEAN_MOTION    = 15.50728592
ECCENTRICITY   = .00014077
INCLINATION    = 43.0003
RA_OF_ASC_NODE = 56.8717
ARG_OF_PERICENTER = 256.9334
MEAN_ANOMALY   = 28.6261

EPHEMERIS_TYPE = 0
CLASSIFICATION_TYPE = U
NORAD_CAT_ID   = 66519
ELEMENT_SET_NO = 999
REV_AT_EPOCH   = 491
BSTAR          = -.50645997E-2
MEAN_MOTION_DOT = -.288317E-2
MEAN_MOTION_DDOT = 0

CCSDS_OMM_VERS = 2.0
CREATION_DATE  = 
ORIGINATOR     = 

OBJECT_NAME    = STARLINK-35952
OBJECT_ID      = 2025-265E
CENTER_NAME    = EARTH
REF_FRAME      = TEME
TIME_SYSTEM    = UTC
MEAN_ELEMENT_THEORY = SGP/SGP4

EPOCH          = 2025-12-12T06:00:00.999648
MEAN_MOTION    = 15.48262565
ECCENTRICITY   = .00014192
INCLINATION    = 43.0003
RA_OF_ASC_NODE = 56.8719
ARG_OF_PERICENTER = 256.1381
MEAN_ANOMALY   = 29.1894

EPHEMERIS_TYPE = 0
CLASSIFICATION_TYPE = U
NORAD_CAT_ID   = 66520
ELEMENT_SET_NO = 999
REV_AT_EPOCH   = 491
BSTAR          = -.43013015E-1
MEAN_MOTION_DOT = -.2067235E-1
MEAN_MOTION_DDOT = 0

CCSDS_OMM_VERS = 2.0
CREATION_DATE  = 
ORIGINATOR     = 

OBJECT_NAME    = STARLINK-35915
OBJECT_ID      = 2025-265F
CENTER_NAME    = EARTH
REF_FRAME      = TEME
TIME_SYSTEM    = UTC
MEAN_ELEMENT_THEORY = SGP/SGP4

EPOCH          = 2025-12-12T06:00:00.999648
MEAN_MOTION    = 15.50544805
ECCENTRICITY   = .00016751
INCLINATION    = 43.0003
RA_OF_ASC_NODE = 56.8621
ARG_OF_PERICENTER = 259.5909
MEAN_ANOMALY   = 29.7942

EPHEMERIS_TYPE = 0
CLASSIFICATION_TYPE = U
NORAD_CAT_ID   = 66521
ELEMENT_SET_NO = 999
REV_AT_EPOCH   = 491
BSTAR          = .48970691E-3
MEAN_MOTION_DOT = .28457E-3
MEAN_MOTION_DDOT = 0

CCSDS_OMM_VERS = 2.0
CREATION_DATE  = 
ORIGINATOR     = 

OBJECT_NAME    = STARLINK-35946
OBJECT_ID      = 2025-265G
CENTER_NAME    = EARTH
REF_FRAME      = TEME
TIME_SYSTEM    = UTC
MEAN_ELEMENT_THEORY = SGP/SGP4

EPOCH          = 2025-12-12T06:00:00.999648
MEAN_MOTION    = 15.50582792
ECCENTRICITY   = .00018548
INCLINATION    = 43.0001
RA_OF_ASC_NODE = 56.8572
ARG_OF_PERICENTER = 264.0677
MEAN_ANOMALY   = 27.1251

EPHEMERIS_TYPE = 0
CLASSIFICATION_TYPE = U
NORAD_CAT_ID   = 66522
ELEMENT_SET_NO = 999
REV_AT_EPOCH   = 491
BSTAR          = .38368141E-3
MEAN_MOTION_DOT = .22234E-3
MEAN_MOTION_DDOT = 0

CCSDS_OMM_VERS = 2.0
CREATION_DATE  = 
ORIGINATOR     = 

OBJECT_NAME    = STARLINK-35969
OBJECT_ID      = 2025-265H
CENTER_NAME    = EARTH
REF_FRAME      = TEME
TIME_SYSTEM    = UTC
MEAN_ELEMENT_THEORY = SGP/SGP4

EPOCH          = 2025-12-12T06:00:00.999648
MEAN_MOTION    = 15.50547338
ECCENTRICITY   = .0004353
INCLINATION    = 43.0005
RA_OF_ASC_NODE = 56.8521
ARG_OF_PERICENTER = 285.3164
MEAN_ANOMALY   = 7.9158

EPHEMERIS_TYPE = 0
CLASSIFICATION_TYPE = U
NORAD_CAT_ID   = 66523
ELEMENT_SET_NO = 999
REV_AT_EPOCH   = 491
BSTAR          = .46091788E-3
MEAN_MOTION_DOT = .26767E-3
MEAN_MOTION_DDOT = 0

CCSDS_OMM_VERS = 2.0
CREATION_DATE  = 
ORIGINATOR     = 

OBJECT_NAME    = STARLINK-35687
OBJECT_ID      = 2025-265J
CENTER_NAME    = EARTH
REF_FRAME      = TEME
TIME_SYSTEM    = UTC
MEAN_ELEMENT_THEORY = SGP/SGP4

EPOCH          = 2025-12-12T06:00:00.999648
MEAN_MOTION    = 15.44128612
ECCENTRICITY   = .00010671
INCLINATION    = 43.0007
RA_OF_ASC_NODE = 56.8883
ARG_OF_PERICENTER = 266.2124
MEAN_ANOMALY   = 12.3328

EPHEMERIS_TYPE = 0
CLASSIFICATION_TYPE = U
NORAD_CAT_ID   = 66524
ELEMENT_SET_NO = 999
REV_AT_EPOCH   = 491
BSTAR          = -.48953541E-1
MEAN_MOTION_DOT = -.2040358E-1
MEAN_MOTION_DDOT = 0

CCSDS_OMM_VERS = 2.0
CREATION_DATE  = 
ORIGINATOR     = 

OBJECT_NAME    = STARLINK-35975
OBJECT_ID      = 2025-265K
CENTER_NAME    = EARTH
REF_FRAME      = TEME
TIME_SYSTEM    = UTC
MEAN_ELEMENT_THEORY = SGP/SGP4

EPOCH          = 2025-12-12T06:00:00.999648
MEAN_MOTION    = 15.50387618
ECCENTRICITY   = .00013819
INCLINATION    = 43.0003
RA_OF_ASC_NODE = 56.8427
ARG_OF_PERICENTER = 267.6679
MEAN_ANOMALY   = 29.2051

EPHEMERIS_TYPE = 0
CLASSIFICATION_TYPE = U
NORAD_CAT_ID   = 66525
ELEMENT_SET_NO = 999
REV_AT_EPOCH   = 491
BSTAR          = -.44319454E-1
MEAN_MOTION_DOT = -.2269434E-1
MEAN_MOTION_DDOT = 0

CCSDS_OMM_VERS = 2.0
CREATION_DATE  = 
ORIGINATOR     = 

OBJECT_NAME    = STARLINK-35932
OBJECT_ID      = 2025-265L
CENTER_NAME    = EARTH
REF_FRAME      = TEME
TIME_SYSTEM    = UTC
MEAN_ELEMENT_THEORY = SGP/SGP4

EPOCH          = 2025-12-12T06:00:00.999648
MEAN_MOTION    = 15.50519619
ECCENTRICITY   = .00017156
INCLINATION    = 43.0004
RA_OF_ASC_NODE = 56.8358
ARG_OF_PERICENTER = 222.4237
MEAN_ANOMALY   = 76.4649

EPHEMERIS_TYPE = 0
CLASSIFICATION_TYPE = U
NORAD_CAT_ID   = 66526
ELEMENT_SET_NO = 999
REV_AT_EPOCH   = 480
BSTAR          = .16210036E-2
MEAN_MOTION_DOT = .95723E-3
MEAN_MOTION_DDOT = 0

