SENTINEL-6B             
1 66514U 25264A   25346.25094248 -.00000015  00000+0  19742-3 0  9997
2 66514  66.0385 163.4531 0007848 270.1768  89.8348 12.81479583  3228
STARLINK-35924          
1 66516U 25265A   25346.25001157 -.02351276  00000+0 -58248-1 0  9990
2 66516  43.0004  56.9436 0001252 251.5557   4.7897 15.43116483  4892
STARLINK-35937          
1 66517U 25265B   25346.25001157  .00028303  00000+0  48703-3 0  9996
2 66517  43.0003  56.8815 0001400 268.9208  12.8005 15.50549289  4918
STARLINK-35962          
1 66518U 25265C   25346.25001157 -.00083330  00000+0 -14257-2 0  9996
2 66518  42.9999  56.8767 0002289 266.9099  16.7373 15.50654890  4915
STARLINK-35931          
1 66519U 25265D   25346.25001157 -.00288317  00000+0 -50646-2 0  9991
2 66519  43.0003  56.8717 0001407 256.9334  28.6261 15.50728592  4910
STARLINK-35952          
1 66520U 25265E   25346.25001157 -.02067235  00000+0 -43013-1 0  9998
2 66520  43.0003  56.8719 0001419 256.1381  29.1894 15.48262565  4919
STARLINK-35915          
1 66521U 25265F   25346.25001157  .00028457  00000+0  48971-3 0  9998
2 66521  43.0003  56.8621 0001675 259.5909  29.7942 15.50544805  4912
STARLINK-35946          
1 66522U 25265G   25346.25001157  .00022234  00000+0  38368-3 0  9995
2 66522  43.0001  56.8572 0001854 264.0677  27.1251 15.50582792  4910
STARLINK-35969          
1 66523U 25265H   25346.25001157  .00026767  00000+0  46092-3 0  9994
2 66523  43.0005  56.8521 0004353 285.3164   7.9158 15.50547338  4912
STARLINK-35687          
1 66524U 25265J   25346.25001157 -.02040358  00000+0 -48954-1 0  9998
2 66524  43.0007  56.8883 0001067 266.2124  12.3328 15.44128612  4911
STARLINK-35975          
1 66525U 25265K   25346.25001157 -.02269434  00000+0 -44319-1 0  9998
2 66525  43.0003  56.8427 0001381 267.6679  29.2051 15.50387618  4911
STARLINK-35932          
1 66526U 25265L   25346.25001157  .00095723  00000+0  16210-2 0  9993
2 66526  43.0004  56.8358 0001715 222.4237  76.4649 15.50519619  4809
